{"type": "FeatureCollection", "features": [ {"type": "Feature", "properties": {"norad_id": 38755, "name": "SPOT 6", "group": "resource", "lat": 64.72420130808985, "lon": -115.9548796118233, "alt_km": 690.6571486818393, "timestamp": "2025-12-07T11:27:49.644242+00:00", "meta": {"OBJECT_NAME": "SPOT 6", "OBJECT_ID": "2012-047A", "EPOCH": "2025-12-06T21:46:19.456896", "MEAN_MOTION": 14.5859481, "ECCENTRICITY": 0.00010684, "INCLINATION": 98.1581, "RA_OF_ASC_NODE": 45.7989, "ARG_OF_PERICENTER": 101.6728, "MEAN_ANOMALY": 258.4591, "EPHEMERIS_TYPE": 0, "CLASSIFICATION_TYPE": "U", "NORAD_CAT_ID": 38755, "ELEMENT_SET_NO": 999, "REV_AT_EPOCH": 70502, "BSTAR": 0.00018104048, "MEAN_MOTION_DOT": 7.97e-06, "MEAN_MOTION_DDOT": 0}, "tle": {"line1": "1 38755U 12047A   25340.90716964  .00000797  00000+0  18104-3 0  9997", "line2": "2 38755  98.1581  45.7989 0001068 101.6728 258.4591 14.58594810705027"}}, "geometry": {"type": "Point", "coordinates": [-115.9548796118233, 64.72420130808985]}}, {"type": "Feature", "properties": {"norad_id": 39019, "name": "PLEIADES 1B", "group": "resource", "lat": 13.194966503090507, "lon": 52.279668863730336, "alt_km": 698.7230174388233, "timestamp": "2025-12-07T11:27:49.644268+00:00", "meta": {"OBJECT_NAME": "PLEIADES 1B", "OBJECT_ID": "2012-068A", "EPOCH": "2025-12-06T22:13:52.418496", "MEAN_MOTION": 14.58544255, "ECCENTRICITY": 0.00012216, "INCLINATION": 98.1802, "RA_OF_ASC_NODE": 53.6697, "ARG_OF_PERICENTER": 87.2118, "MEAN_ANOMALY": 272.9221, "EPHEMERIS_TYPE": 0, "CLASSIFICATION_TYPE": "U", "NORAD_CAT_ID": 39019, "ELEMENT_SET_NO": 999, "REV_AT_EPOCH": 69282, "BSTAR": 0.0001856108, "MEAN_MOTION_DOT": 8.17e-06, "MEAN_MOTION_DDOT": 0}, "tle": {"line1": "1 39019U 12068A   25340.92630114  .00000817  00000+0  18561-3 0  9998", "line2": "2 39019  98.1802  53.6697 0001221  87.2118 272.9221 14.58544255692826"}}, "geometry": {"type": "Point", "coordinates": [52.279668863730336, 13.194966503090507]}}, {"type": "Feature", "properties": {"norad_id": 39030, "name": "GOKTURK 2", "group": "resource", "lat": -81.93689479822326, "lon": -104.0863521684397, "alt_km": 652.2271075937197, "timestamp": "2025-12-07T11:27:49.644280+00:00", "meta": {"OBJECT_NAME": "GOKTURK 2", "OBJECT_ID": "2012-073A", "EPOCH": "2025-12-06T19:34:56.533440", "MEAN_MOTION": 14.75278858, "ECCENTRICITY": 8.661e-05, "INCLINATION": 97.6904, "RA_OF_ASC_NODE": 182.7608, "ARG_OF_PERICENTER": 102.0163, "MEAN_ANOMALY": 258.1144, "EPHEMERIS_TYPE": 0, "CLASSIFICATION_TYPE": "U", "NORAD_CAT_ID": 39030, "ELEMENT_SET_NO": 999, "REV_AT_EPOCH": 69614, "BSTAR": 0.00018711788, "MEAN_MOTION_DOT": 1.22e-05, "MEAN_MOTION_DDOT": 0}, "tle": {"line1": "1 39030U 12073A   25340.81593210  .00001220  00000+0  18712-3 0  9997", "line2": "2 39030  97.6904 182.7608 0000866 102.0163 258.1144 14.75278858696143"}}, "geometry": {"type": "Point", "coordinates": [-104.0863521684397, -81.93689479822326]}}, {"type": "Feature", "properties": {"norad_id": 39084, "name": "LANDSAT 8", "group": "resource", "lat": -30.469357702040433, "lon": -135.24267356401495, "alt_km": 708.9896956320254, "timestamp": "2025-12-07T11:27:49.644291+00:00", "meta": {"OBJECT_NAME": "LANDSAT 8", "OBJECT_ID": "2013-008A", "EPOCH": "2025-12-06T21:18:54.749088", "MEAN_MOTION": 14.57105139, "ECCENTRICITY": 0.00011428, "INCLINATION": 98.2079, "RA_OF_ASC_NODE": 49.0478, "ARG_OF_PERICENTER": 86.2222, "MEAN_ANOMALY": 273.9107, "EPHEMERIS_TYPE": 0, "CLASSIFICATION_TYPE": "U", "NORAD_CAT_ID": 39084, "ELEMENT_SET_NO": 999, "REV_AT_EPOCH": 66989, "BSTAR": 0.00018514152, "MEAN_MOTION_DOT": 7.89e-06, "MEAN_MOTION_DDOT": 0}, "tle": {"line1": "1 39084U 13008A   25340.88813367  .00000789  00000+0  18514-3 0  9999", "line2": "2 39084  98.2079  49.0478 0001142  86.2222 273.9107 14.57105139669896"}}, "geometry": {"type": "Point", "coordinates": [-135.24267356401495, -30.469357702040433]}}, {"type": "Feature", "properties": {"norad_id": 39086, "name": "SARAL", "group": "resource", "lat": -61.85744805276381, "lon": -178.18771248470588, "alt_km": 791.6455948315752, "timestamp": "2025-12-07T11:27:49.644302+00:00", "meta": {"OBJECT_NAME": "SARAL", "OBJECT_ID": "2013-009A", "EPOCH": "2025-12-06T22:20:58.095744", "MEAN_MOTION": 14.32753952, "ECCENTRICITY": 0.00027331, "INCLINATION": 98.5506, "RA_OF_ASC_NODE": 164.9374, "ARG_OF_PERICENTER": 119.6027, "MEAN_ANOMALY": 240.5429, "EPHEMERIS_TYPE": 0, "CLASSIFICATION_TYPE": "U", "NORAD_CAT_ID": 39086, "ELEMENT_SET_NO": 999, "REV_AT_EPOCH": 66807, "BSTAR": 0.00010999326, "MEAN_MOTION_DOT": 2.56e-06, "MEAN_MOTION_DDOT": 0}, "tle": {"line1": "1 39086U 13009A   25340.93122796  .00000256  00000+0  10999-3 0  9995", "line2": "2 39086  98.5506 164.9374 0002733 119.6027 240.5429 14.32753952668070"}}, "geometry": {"type": "Point", "coordinates": [-178.18771248470588, -61.85744805276381]}}, {"type": "Feature", "properties": {"norad_id": 39150, "name": "GAOFEN-1", "group": "resource", "lat": -32.85227853390145, "lon": 57.39623380013393, "alt_km": 658.7422040980546, "timestamp": "2025-12-07T11:27:49.644312+00:00", "meta": {"OBJECT_NAME": "GAOFEN-1", "OBJECT_ID": "2013-018A", "EPOCH": "2025-12-06T22:36:10.619712", "MEAN_MOTION": 14.76518229, "ECCENTRICITY": 0.00178906, "INCLINATION": 97.9334, "RA_OF_ASC_NODE": 51.7034, "ARG_OF_PERICENTER": 161.1598, "MEAN_ANOMALY": 199.0278, "EPHEMERIS_TYPE": 0, "CLASSIFICATION_TYPE": "U", "NORAD_CAT_ID": 39150, "ELEMENT_SET_NO": 999, "REV_AT_EPOCH": 67987, "BSTAR": 0.00022832459, "MEAN_MOTION_DOT": 1.544e-05, "MEAN_MOTION_DDOT": 0}, "tle": {"line1": "1 39150U 13018A   25340.94178958  .00001544  00000+0  22832-3 0  9999", "line2": "2 39150  97.9334  51.7034 0017890 161.1598 199.0278 14.76518229679879"}}, "geometry": {"type": "Point", "coordinates": [57.39623380013393, -32.85227853390145]}}, {"type": "Feature", "properties": {"norad_id": 39160, "name": "VNREDSAT 1", "group": "resource", "lat": -67.63646969044858, "lon": -162.8877613000058, "alt_km": 685.5292091519968, "timestamp": "2025-12-07T11:27:49.644323+00:00", "meta": {"OBJECT_NAME": "VNREDSAT 1", "OBJECT_ID": "2013-021B", "EPOCH": "2025-12-06T21:12:58.256640", "MEAN_MOTION": 14.64909273, "ECCENTRICITY": 0.00013218, "INCLINATION": 97.9381, "RA_OF_ASC_NODE": 36.364, "ARG_OF_PERICENTER": 83.1157, "MEAN_ANOMALY": 277.0197, "EPHEMERIS_TYPE": 0, "CLASSIFICATION_TYPE": "U", "NORAD_CAT_ID": 39160, "ELEMENT_SET_NO": 999, "REV_AT_EPOCH": 67213, "BSTAR": 0.0002494949, "MEAN_MOTION_DOT": 1.288e-05, "MEAN_MOTION_DDOT": 0}, "tle": {"line1": "1 39160U 13021B   25340.88400760  .00001288  00000+0  24949-3 0  9992", "line2": "2 39160  97.9381  36.3640 0001321  83.1157 277.0197 14.64909273672139"}}, "geometry": {"type": "Point", "coordinates": [-162.8877613000058, -67.63646969044858]}}, {"type": "Feature", "properties": {"norad_id": 39227, "name": "ARIRANG-5 (KOMPSAT-5)", "group": "resource", "lat": -60.49181845732961, "lon": 179.53042734365167, "alt_km": 562.0027422901685, "timestamp": "2025-12-07T11:27:49.644334+00:00", "meta": {"OBJECT_NAME": "ARIRANG-5 (KOMPSAT-5)", "OBJECT_ID": "2013-042A", "EPOCH": "2025-12-06T21:22:14.365920", "MEAN_MOTION": 15.0452254, "ECCENTRICITY": 0.00039492, "INCLINATION": 97.615, "RA_OF_ASC_NODE": 165.2783, "ARG_OF_PERICENTER": 73.6348, "MEAN_ANOMALY": 286.5312, "EPHEMERIS_TYPE": 0, "CLASSIFICATION_TYPE": "U", "NORAD_CAT_ID": 39227, "ELEMENT_SET_NO": 999, "REV_AT_EPOCH": 67494, "BSTAR": 0.0001905071, "MEAN_MOTION_DOT": 2.608e-05, "MEAN_MOTION_DDOT": 0}, "tle": {"line1": "1 39227U 13042A   25340.89044405  .00002608  00000+0  19051-3 0  9995", "line2": "2 39227  97.6150 165.2783 0003949  73.6348 286.5312 15.04522540674946"}}, "geometry": {"type": "Point", "coordinates": [179.53042734365167, -60.49181845732961]}}, {"type": "Feature", "properties": {"norad_id": 39418, "name": "SKYSAT-A", "group": "resource", "lat": 1.983808216327822, "lon": -147.89543033658893, "alt_km": 531.4027270954548, "timestamp": "2025-12-07T11:27:49.644345+00:00", "meta": {"OBJECT_NAME": "SKYSAT-A", "OBJECT_ID": "2013-066C", "EPOCH": "2025-12-06T20:22:41.317248", "MEAN_MOTION": 15.11536644, "ECCENTRICITY": 0.00205533, "INCLINATION": 97.411, "RA_OF_ASC_NODE": 31.2368, "ARG_OF_PERICENTER": 258.357, "MEAN_ANOMALY": 101.5354, "EPHEMERIS_TYPE": 0, "CLASSIFICATION_TYPE": "U", "NORAD_CAT_ID": 39418, "ELEMENT_SET_NO": 999, "REV_AT_EPOCH": 65941, "BSTAR": 0.00032311569, "MEAN_MOTION_DOT": 5.441e-05, "MEAN_MOTION_DDOT": 0}, "tle": {"line1": "1 39418U 13066C   25340.84908932  .00005441  00000+0  32312-3 0  9995", "line2": "2 39418  97.4110  31.2368 0020553 258.3570 101.5354 15.11536644659417"}}, "geometry": {"type": "Point", "coordinates": [-147.89543033658893, 1.983808216327822]}}, {"type": "Feature", "properties": {"norad_id": 39419, "name": "DUBAISAT-2", "group": "resource", "lat": 21.51344876723713, "lon": -30.906916762353447, "alt_km": 535.5980815852699, "timestamp": "2025-12-07T11:27:49.644356+00:00", "meta": {"OBJECT_NAME": "DUBAISAT-2", "OBJECT_ID": "2013-066D", "EPOCH": "2025-12-06T22:37:48.753696", "MEAN_MOTION": 15.08269005, "ECCENTRICITY": 0.00111209, "INCLINATION": 97.444, "RA_OF_ASC_NODE": 331.5292, "ARG_OF_PERICENTER": 342.1586, "MEAN_ANOMALY": 17.925, "EPHEMERIS_TYPE": 0, "CLASSIFICATION_TYPE": "U", "NORAD_CAT_ID": 39419, "ELEMENT_SET_NO": 999, "REV_AT_EPOCH": 65739, "BSTAR": 0.00050359972, "MEAN_MOTION_DOT": 7.757e-05, "MEAN_MOTION_DDOT": 0}, "tle": {"line1": "1 39419U 13066D   25340.94292539  .00007757  00000+0  50360-3 0  9991", "line2": "2 39419  97.4440 331.5292 0011120 342.1586  17.9250 15.08269005657395"}}, "geometry": {"type": "Point", "coordinates": [-30.906916762353447, 21.51344876723713]}}]}